[{"OBJECT_NAME":"MONOLITH","OBJECT_ID":"2021-068A","EPOCH":"2026-03-09T13:05:30.210720","MEAN_MOTION":15.08010119,"ECCENTRICITY":0.00026796,"INCLINATION":37.022,"RA_OF_ASC_NODE":141.2957,"ARG_OF_PERICENTER":131.6464,"MEAN_ANOMALY":228.4511,"EPHEMERIS_TYPE":0,"CLASSIFICATION_TYPE":"U","NORAD_CAT_ID":49052,"ELEMENT_SET_NO":999,"REV_AT_EPOCH":25222,"BSTAR":0.00053655804,"MEAN_MOTION_DOT":8.348e-5,"MEAN_MOTION_DDOT":0},{"OBJECT_NAME":"STARLINK-4495","OBJECT_ID":"2022-101AB","EPOCH":"2026-03-09T06:27:18.317664","MEAN_MOTION":15.08834588,"ECCENTRICITY":0.00014005,"INCLINATION":53.2191,"RA_OF_ASC_NODE":66.0096,"ARG_OF_PERICENTER":88.2328,"MEAN_ANOMALY":271.8825,"EPHEMERIS_TYPE":0,"CLASSIFICATION_TYPE":"U","NORAD_CAT_ID":53552,"ELEMENT_SET_NO":999,"REV_AT_EPOCH":19689,"BSTAR":5.4796201e-5,"MEAN_MOTION_DOT":5.84e-6,"MEAN_MOTION_DDOT":0}]
