MONOLITH                
1 49052U 21068A   26068.54548855  .00008348  00000+0  53656-3 0  9993
2 49052  37.0220 141.2957 0002679 131.6464 228.4511 15.08010119252226
STARLINK-4495           
1 53552U 22101AB  26068.26896201  .00000584  00000+0  54796-4 0  9993
2 53552  53.2191  66.0096 0001400  88.2328 271.8825 15.08834588196892
